*******************************************************************************
 Revised: July 31, 2013                  Earth                              399
 
 GEOPHYSICAL PROPERTIES (revised Aug 15, 2018):
  Vol. Mean Radius (km)    = 6371.01+-0.02   Mass x10^24 (kg)= 5.97219+-0.0006
  Equ. radius, km          = 6378.137        Mass layers:
  Polar axis, km           = 6356.752          Atmos         = 5.1   x 10^18 kg
  Flattening               = 1/298.257223563   oceans        = 1.4   x 10^21 kg
  Density, g/cm^3          = 5.51              crust         = 2.6   x 10^22 kg
  J2 (IERS 2010)           = 0.00108262545     mantle        = 4.043 x 10^24 kg
  g_p, m/s^2  (polar)      = 9.8321863685      outer core    = 1.835 x 10^24 kg
  g_e, m/s^2  (equatorial) = 9.7803267715      inner core    = 9.675 x 10^22 kg
  g_o, m/s^2               = 9.82022         Fluid core rad  = 3480 km
  GM, km^3/s^2             = 398600.435436   Inner core rad  = 1215 km
  GM 1-sigma, km^3/s^2     =      0.0014     Escape velocity = 11.186 km/s
  Rot. Rate (rad/s)        = 0.00007292115   Surface area:
  Mean sidereal day, hr    = 23.9344695944     land          = 1.48 x 10^8 km
  Mean solar day 2000.0, s = 86400.002         sea           = 3.62 x 10^8 km
  Mean solar day 1820.0, s = 86400.0         Love no., k2    = 0.299
  Moment of inertia        = 0.3308          Atm. pressure   = 1.0 bar
  Mean temperature, K      = 270             Volume, km^3    = 1.08321 x 10^12
  Mean effect. IR temp, K  = 255             Magnetic moment = 0.61 gauss Rp^3
  Geometric albedo         = 0.367           Vis. mag. V(1,0)= -3.86
  Solar Constant (W/m^2)   = 1367.6 (mean), 1414 (perihelion), 1322 (aphelion)
 HELIOCENTRIC ORBIT CHARACTERISTICS:
  Obliquity to orbit, deg  = 23.4392911  Sidereal orb period  = 1.0000174 y
  Orbital speed, km/s      = 29.79       Sidereal orb period  = 365.25636 d
  Mean daily motion, deg/d = 0.9856474   Hill's sphere radius = 234.9       
*******************************************************************************
 
 
*******************************************************************************
Ephemeris / WWW_USER Fri Oct 16 04:04:50 2020 Pasadena, USA      / Horizons
*******************************************************************************
Target body name: Earth (399)                     {source: DE431mx}
Center body name: Sun (10)                        {source: DE431mx}
Center-site name: BODY CENTER
*******************************************************************************
Start time      : A.D. 2020-Sep-01 00:00:00.0000 TDB
Stop  time      : A.D. 2020-Oct-01 00:00:00.0000 TDB
Step-size       : 1440 minutes
*******************************************************************************
Center geodetic : 0.00000000,0.00000000,0.0000000 {E-lon(deg),Lat(deg),Alt(km)}
Center cylindric: 0.00000000,0.00000000,0.0000000 {E-lon(deg),Dxy(km),Dz(km)}
Center radii    : 696000.0 x 696000.0 x 696000.0 k{Equator, meridian, pole}    
Output units    : AU-D
Output type     : GEOMETRIC cartesian states
Output format   : 3 (position, velocity, LT, range, range-rate)
Reference frame : Ecliptic of J2000.0
*******************************************************************************
JDTDB
   X     Y     Z
   VX    VY    VZ
   LT    RG    RR
*******************************************************************************
$$SOE
2459115.500000000 = A.D. 2020-Sep-23 00:00:00.0000 TDB 
 X = 1.003462080364983E+00 Y = 2.590744378027181E-03 Z =-3.358696881844178E-06
 VX=-3.310808864439654E-04 VY= 1.714181451889814E-02 VZ=-1.639027032394366E-07
 LT= 5.795532955691544E-03 RG= 1.003465424764667E+00 RR=-2.868230910926739E-04
2459116.500000000 = A.D. 2020-Sep-24 00:00:00.0000 TDB 
 X = 1.002983904296832E+00 Y = 1.973048152340365E-02 Z =-3.518545501588747E-06
 VX=-6.252206380100994E-04 VY= 1.713682215081631E-02 VZ=-1.618698761574583E-07
 LT= 5.793872653810104E-03 RG= 1.003177952405276E+00 RR=-2.880530642438829E-04
2459117.500000000 = A.D. 2020-Sep-25 00:00:00.0000 TDB 
 X = 1.002211749709077E+00 Y = 3.686272838653627E-02 Z =-3.694010930694602E-06
 VX=-9.190291454059381E-04 VY= 1.712684834912624E-02 VZ=-1.945090707420258E-07
 LT= 5.792206411781187E-03 RG= 1.002889451541233E+00 RR=-2.888847298931385E-04
2459118.500000000 = A.D. 2020-Sep-26 00:00:00.0000 TDB 
 X = 1.001145971509336E+00 Y = 5.398254392490235E-02 Z =-3.917665182994771E-06
 VX=-1.212461508829365E-03 VY= 1.711197110671079E-02 VZ=-2.574242586390407E-07
 LT= 5.790536439903778E-03 RG= 1.002600304873943E+00 RR=-2.893508219039960E-04
2459119.500000000 = A.D. 2020-Sep-27 00:00:00.0000 TDB 
 X = 9.997869633439932E-01 Y = 7.108505683867555E-02 Z =-4.217195069388480E-06
 VX=-1.505484115375146E-03 VY= 1.709225208625241E-02 VZ=-3.453319989599710E-07
 LT= 5.788864738013383E-03 RG= 1.002310858664190E+00 RR=-2.894907074554533E-04
2459120.500000000 = A.D. 2020-Sep-28 00:00:00.0000 TDB 
 X = 9.981351490163036E-01 Y = 8.816544993318914E-02 Z =-4.614750855399974E-06
 VX=-1.798069609131163E-03 VY= 1.706773814072464E-02 VZ=-4.524990496321796E-07
 LT= 5.787193068596133E-03 RG= 1.002021418076987E+00 RR=-2.893467718496742E-04
2459121.500000000 = A.D. 2020-Sep-29 00:00:00.0000 TDB 
 X = 9.961909779136698E-01 Y = 1.052189462164254E-01 Z =-5.126641165669092E-06
 VX=-2.090193775634456E-03 VY= 1.703846309981095E-02 VZ=-5.730098953376600E-07
 LT= 5.785522945552673E-03 RG= 1.001732245236107E+00 RR=-2.889624920309474E-04
2459122.500000000 = A.D. 2020-Sep-30 00:00:00.0000 TDB 
 X = 9.939549229253521E-01 Y = 1.222407966342841E-01 Z =-5.763242074323152E-06
 VX=-2.381833548569153E-03 VY= 1.700444921291538E-02 VZ=-7.009391992248611E-07
 LT= 5.783855631000704E-03 RG= 1.001443558670454E+00 RR=-2.883814634733918E-04
2459123.500000000 = A.D. 2020-Oct-01 00:00:00.0000 TDB 
 X = 9.914274800731203E-01 Y = 1.392262690395274E-01 Z =-6.529055999265086E-06
 VX=-2.672965493069587E-03 VY= 1.696570819505828E-02 VZ=-8.304861230998711E-07
 LT= 5.782192136405840E-03 RG= 1.001155533509870E+00 RR=-2.876467985680446E-04
